<?xml version="1.0" encoding="UTF-8"?>
<ndm xmlns:xsi="http://www.w3.org/2001/XMLSchema-instance" xsi:noNamespaceSchemaLocation="https://sanaregistry.org/r/ndmxml_unqualified/ndmxml-2.0.0-master-2.0.xsd">
<omm id="CCSDS_OMM_VERS" version="2.0">
<header><CREATION_DATE/><ORIGINATOR/></header><body><segment><metadata><OBJECT_NAME>ORBCOMM FM33 [-]</OBJECT_NAME><OBJECT_ID>1999-065D</OBJECT_ID><CENTER_NAME>EARTH</CENTER_NAME><REF_FRAME>TEME</REF_FRAME><TIME_SYSTEM>UTC</TIME_SYSTEM><MEAN_ELEMENT_THEORY>SGP4</MEAN_ELEMENT_THEORY></metadata><data><meanElements><EPOCH>2023-11-26T17:10:21.168192</EPOCH><MEAN_MOTION>14.37016042</MEAN_MOTION><ECCENTRICITY>.0008957</ECCENTRICITY><INCLINATION>45.0268</INCLINATION><RA_OF_ASC_NODE>174.7988</RA_OF_ASC_NODE><ARG_OF_PERICENTER>84.5286</ARG_OF_PERICENTER><MEAN_ANOMALY>38.1312</MEAN_ANOMALY></meanElements><tleParameters><EPHEMERIS_TYPE>0</EPHEMERIS_TYPE><CLASSIFICATION_TYPE>U</CLASSIFICATION_TYPE><NORAD_CAT_ID>25983</NORAD_CAT_ID><ELEMENT_SET_NO>999</ELEMENT_SET_NO><REV_AT_EPOCH>25421</REV_AT_EPOCH><BSTAR>.88779E-3</BSTAR><MEAN_MOTION_DOT>.2516E-4</MEAN_MOTION_DOT><MEAN_MOTION_DDOT>0</MEAN_MOTION_DDOT></tleParameters></data></segment></body></omm>
<omm id="CCSDS_OMM_VERS" version="2.0">
<header><CREATION_DATE/><ORIGINATOR/></header><body><segment><metadata><OBJECT_NAME>ORBCOMM FM36 [-]</OBJECT_NAME><OBJECT_ID>1999-065E</OBJECT_ID><CENTER_NAME>EARTH</CENTER_NAME><REF_FRAME>TEME</REF_FRAME><TIME_SYSTEM>UTC</TIME_SYSTEM><MEAN_ELEMENT_THEORY>SGP4</MEAN_ELEMENT_THEORY></metadata><data><meanElements><EPOCH>2023-11-26T21:40:14.393568</EPOCH><MEAN_MOTION>14.34888756</MEAN_MOTION><ECCENTRICITY>.0004913</ECCENTRICITY><INCLINATION>45.0404</INCLINATION><RA_OF_ASC_NODE>256.5598</RA_OF_ASC_NODE><ARG_OF_PERICENTER>328.3903</ARG_OF_PERICENTER><MEAN_ANOMALY>31.6649</MEAN_ANOMALY></meanElements><tleParameters><EPHEMERIS_TYPE>0</EPHEMERIS_TYPE><CLASSIFICATION_TYPE>U</CLASSIFICATION_TYPE><NORAD_CAT_ID>25984</NORAD_CAT_ID><ELEMENT_SET_NO>999</ELEMENT_SET_NO><REV_AT_EPOCH>25330</REV_AT_EPOCH><BSTAR>.75642E-3</BSTAR><MEAN_MOTION_DOT>.2028E-4</MEAN_MOTION_DOT><MEAN_MOTION_DDOT>0</MEAN_MOTION_DDOT></tleParameters></data></segment></body></omm>
<omm id="CCSDS_OMM_VERS" version="2.0">
<header><CREATION_DATE/><ORIGINATOR/></header><body><segment><metadata><OBJECT_NAME>ORBCOMM FM35 [+]</OBJECT_NAME><OBJECT_ID>1999-065F</OBJECT_ID><CENTER_NAME>EARTH</CENTER_NAME><REF_FRAME>TEME</REF_FRAME><TIME_SYSTEM>UTC</TIME_SYSTEM><MEAN_ELEMENT_THEORY>SGP4</MEAN_ELEMENT_THEORY></metadata><data><meanElements><EPOCH>2023-11-26T21:40:11.298720</EPOCH><MEAN_MOTION>14.34564154</MEAN_MOTION><ECCENTRICITY>.0002894</ECCENTRICITY><INCLINATION>45.0403</INCLINATION><RA_OF_ASC_NODE>258.7475</RA_OF_ASC_NODE><ARG_OF_PERICENTER>46.7758</ARG_OF_PERICENTER><MEAN_ANOMALY>313.3331</MEAN_ANOMALY></meanElements><tleParameters><EPHEMERIS_TYPE>0</EPHEMERIS_TYPE><CLASSIFICATION_TYPE>U</CLASSIFICATION_TYPE><NORAD_CAT_ID>25985</NORAD_CAT_ID><ELEMENT_SET_NO>999</ELEMENT_SET_NO><REV_AT_EPOCH>25311</REV_AT_EPOCH><BSTAR>.66293E-3</BSTAR><MEAN_MOTION_DOT>.1748E-4</MEAN_MOTION_DOT><MEAN_MOTION_DDOT>0</MEAN_MOTION_DDOT></tleParameters></data></segment></body></omm>
<omm id="CCSDS_OMM_VERS" version="2.0">
<header><CREATION_DATE/><ORIGINATOR/></header><body><segment><metadata><OBJECT_NAME>ORBCOMM FM34 [-]</OBJECT_NAME><OBJECT_ID>1999-065G</OBJECT_ID><CENTER_NAME>EARTH</CENTER_NAME><REF_FRAME>TEME</REF_FRAME><TIME_SYSTEM>UTC</TIME_SYSTEM><MEAN_ELEMENT_THEORY>SGP4</MEAN_ELEMENT_THEORY></metadata><data><meanElements><EPOCH>2023-11-27T03:31:47.127936</EPOCH><MEAN_MOTION>14.34518528</MEAN_MOTION><ECCENTRICITY>.0004613</ECCENTRICITY><INCLINATION>45.0393</INCLINATION><RA_OF_ASC_NODE>258.0854</RA_OF_ASC_NODE><ARG_OF_PERICENTER>3.3951</ARG_OF_PERICENTER><MEAN_ANOMALY>356.6927</MEAN_ANOMALY></meanElements><tleParameters><EPHEMERIS_TYPE>0</EPHEMERIS_TYPE><CLASSIFICATION_TYPE>U</CLASSIFICATION_TYPE><NORAD_CAT_ID>25986</NORAD_CAT_ID><ELEMENT_SET_NO>999</ELEMENT_SET_NO><REV_AT_EPOCH>25330</REV_AT_EPOCH><BSTAR>.70814E-3</BSTAR><MEAN_MOTION_DOT>.1875E-4</MEAN_MOTION_DOT><MEAN_MOTION_DDOT>0</MEAN_MOTION_DDOT></tleParameters></data></segment></body></omm>
<omm id="CCSDS_OMM_VERS" version="2.0">
<header><CREATION_DATE/><ORIGINATOR/></header><body><segment><metadata><OBJECT_NAME>ORBCOMM FM38 [-]</OBJECT_NAME><OBJECT_ID>2008-031A</OBJECT_ID><CENTER_NAME>EARTH</CENTER_NAME><REF_FRAME>TEME</REF_FRAME><TIME_SYSTEM>UTC</TIME_SYSTEM><MEAN_ELEMENT_THEORY>SGP4</MEAN_ELEMENT_THEORY></metadata><data><meanElements><EPOCH>2023-11-26T21:16:26.405472</EPOCH><MEAN_MOTION>14.76464594</MEAN_MOTION><ECCENTRICITY>.0005233</ECCENTRICITY><INCLINATION>48.4386</INCLINATION><RA_OF_ASC_NODE>132.6464</RA_OF_ASC_NODE><ARG_OF_PERICENTER>132.9683</ARG_OF_PERICENTER><MEAN_ANOMALY>227.1670</MEAN_ANOMALY></meanElements><tleParameters><EPHEMERIS_TYPE>0</EPHEMERIS_TYPE><CLASSIFICATION_TYPE>U</CLASSIFICATION_TYPE><NORAD_CAT_ID>33060</NORAD_CAT_ID><ELEMENT_SET_NO>999</ELEMENT_SET_NO><REV_AT_EPOCH>83064</REV_AT_EPOCH><BSTAR>.52003E-3</BSTAR><MEAN_MOTION_DOT>.3454E-4</MEAN_MOTION_DOT><MEAN_MOTION_DDOT>0</MEAN_MOTION_DDOT></tleParameters></data></segment></body></omm>
<omm id="CCSDS_OMM_VERS" version="2.0">
<header><CREATION_DATE/><ORIGINATOR/></header><body><segment><metadata><OBJECT_NAME>ORBCOMM FM41 [-]</OBJECT_NAME><OBJECT_ID>2008-031B</OBJECT_ID><CENTER_NAME>EARTH</CENTER_NAME><REF_FRAME>TEME</REF_FRAME><TIME_SYSTEM>UTC</TIME_SYSTEM><MEAN_ELEMENT_THEORY>SGP4</MEAN_ELEMENT_THEORY></metadata><data><meanElements><EPOCH>2023-11-26T17:13:17.773248</EPOCH><MEAN_MOTION>14.76220434</MEAN_MOTION><ECCENTRICITY>.0004261</ECCENTRICITY><INCLINATION>48.4424</INCLINATION><RA_OF_ASC_NODE>139.6895</RA_OF_ASC_NODE><ARG_OF_PERICENTER>118.5257</ARG_OF_PERICENTER><MEAN_ANOMALY>336.1190</MEAN_ANOMALY></meanElements><tleParameters><EPHEMERIS_TYPE>0</EPHEMERIS_TYPE><CLASSIFICATION_TYPE>U</CLASSIFICATION_TYPE><NORAD_CAT_ID>33061</NORAD_CAT_ID><ELEMENT_SET_NO>999</ELEMENT_SET_NO><REV_AT_EPOCH>83056</REV_AT_EPOCH><BSTAR>.54107E-3</BSTAR><MEAN_MOTION_DOT>.358E-4</MEAN_MOTION_DOT><MEAN_MOTION_DDOT>0</MEAN_MOTION_DDOT></tleParameters></data></segment></body></omm>
<omm id="CCSDS_OMM_VERS" version="2.0">
<header><CREATION_DATE/><ORIGINATOR/></header><body><segment><metadata><OBJECT_NAME>ORBCOMM FM29 [-]</OBJECT_NAME><OBJECT_ID>2008-031C</OBJECT_ID><CENTER_NAME>EARTH</CENTER_NAME><REF_FRAME>TEME</REF_FRAME><TIME_SYSTEM>UTC</TIME_SYSTEM><MEAN_ELEMENT_THEORY>SGP4</MEAN_ELEMENT_THEORY></metadata><data><meanElements><EPOCH>2023-11-26T15:10:51.532032</EPOCH><MEAN_MOTION>14.76104136</MEAN_MOTION><ECCENTRICITY>.0006204</ECCENTRICITY><INCLINATION>48.4375</INCLINATION><RA_OF_ASC_NODE>148.0902</RA_OF_ASC_NODE><ARG_OF_PERICENTER>113.7793</ARG_OF_PERICENTER><MEAN_ANOMALY>4.0280</MEAN_ANOMALY></meanElements><tleParameters><EPHEMERIS_TYPE>0</EPHEMERIS_TYPE><CLASSIFICATION_TYPE>U</CLASSIFICATION_TYPE><NORAD_CAT_ID>33062</NORAD_CAT_ID><ELEMENT_SET_NO>999</ELEMENT_SET_NO><REV_AT_EPOCH>83002</REV_AT_EPOCH><BSTAR>.50816E-3</BSTAR><MEAN_MOTION_DOT>.334E-4</MEAN_MOTION_DOT><MEAN_MOTION_DDOT>0</MEAN_MOTION_DDOT></tleParameters></data></segment></body></omm>
<omm id="CCSDS_OMM_VERS" version="2.0">
<header><CREATION_DATE/><ORIGINATOR/></header><body><segment><metadata><OBJECT_NAME>ORBCOMM FM39 [-]</OBJECT_NAME><OBJECT_ID>2008-031D</OBJECT_ID><CENTER_NAME>EARTH</CENTER_NAME><REF_FRAME>TEME</REF_FRAME><TIME_SYSTEM>UTC</TIME_SYSTEM><MEAN_ELEMENT_THEORY>SGP4</MEAN_ELEMENT_THEORY></metadata><data><meanElements><EPOCH>2023-11-26T16:11:37.054752</EPOCH><MEAN_MOTION>14.75239310</MEAN_MOTION><ECCENTRICITY>.0007039</ECCENTRICITY><INCLINATION>48.4388</INCLINATION><RA_OF_ASC_NODE>167.2438</RA_OF_ASC_NODE><ARG_OF_PERICENTER>87.4721</ARG_OF_PERICENTER><MEAN_ANOMALY>272.6997</MEAN_ANOMALY></meanElements><tleParameters><EPHEMERIS_TYPE>0</EPHEMERIS_TYPE><CLASSIFICATION_TYPE>U</CLASSIFICATION_TYPE><NORAD_CAT_ID>33063</NORAD_CAT_ID><ELEMENT_SET_NO>999</ELEMENT_SET_NO><REV_AT_EPOCH>82974</REV_AT_EPOCH><BSTAR>.45823E-3</BSTAR><MEAN_MOTION_DOT>.2929E-4</MEAN_MOTION_DOT><MEAN_MOTION_DDOT>0</MEAN_MOTION_DDOT></tleParameters></data></segment></body></omm>

</ndm>
