ORBCOMM FM33 [-]        
1 25983U 99065D   23330.71552278  .00002516  00000+0  88779-3 0  9999
2 25983  45.0268 174.7988 0008957  84.5286  38.1312 14.37016042254210
ORBCOMM FM36 [-]        
1 25984U 99065E   23330.90294437  .00002028  00000+0  75642-3 0  9994
2 25984  45.0404 256.5598 0004913 328.3903  31.6649 14.34888756253308
ORBCOMM FM35 [+]        
1 25985U 99065F   23330.90290855  .00001748  00000+0  66293-3 0  9995
2 25985  45.0403 258.7475 0002894  46.7758 313.3331 14.34564154253111
ORBCOMM FM34 [-]        
1 25986U 99065G   23331.14707324  .00001875  00000+0  70814-3 0  9992
2 25986  45.0393 258.0854 0004613   3.3951 356.6927 14.34518528253305
ORBCOMM FM38 [-]        
1 33060U 08031A   23330.88641673  .00003454  00000+0  52003-3 0  9996
2 33060  48.4386 132.6464 0005233 132.9683 227.1670 14.76464594830644
ORBCOMM FM41 [-]        
1 33061U 08031B   23330.71756682  .00003580  00000+0  54107-3 0  9993
2 33061  48.4424 139.6895 0004261 118.5257 336.1190 14.76220434830562
ORBCOMM FM29 [-]        
1 33062U 08031C   23330.63254088  .00003340  00000+0  50816-3 0  9995
2 33062  48.4375 148.0902 0006204 113.7793   4.0280 14.76104136830024
ORBCOMM FM39 [-]        
1 33063U 08031D   23330.67473443  .00002929  00000+0  45823-3 0  9992
2 33063  48.4388 167.2438 0007039  87.4721 272.6997 14.75239310829748
